56190,NUSAT-36 (ANNIE CANNON),2023,93.17,42.0,+,97.34,Active,1,LEO,USA,Argentina,Commercial,Earth Observation,Falcon,1 56190U 23054N   24279.54961986  .00079687  00000+0  16356-2 0  9996,2 56190  97.3415 176.7371 0008814 108.3935 251.8273 15.45700988 83077,15.45700988,0.0008814,LEO
56191,HAWK-7A,2023,94.66,31.0,+,97.35,Active,1,LEO,USA,USA,Commercial,Surveillance,Falcon,1 56191U 23054P   24278.69355319  .00021468  00000+0  96090-3 0  9997,2 56191  97.3533 167.7648 0010086 109.1755 251.0573 15.21249795 82352,15.21249795,0.0010086,LEO
56192,ION SCV-010,2023,94.9,-1.0,+,97.45,Active,0,LEO,USA,Italy,Unknown,Unknown,Unknown,1 56192U 23054Q   24279.13105909  .00016775  00000+0  83819-3 0  9996,2 56192  97.4503 165.9934 0016605 206.0046 154.0355 15.17413702 81863,15.17413702,0.0016605,LEO
56193,HAWK-7B,2023,94.66,31.0,+,97.34,Active,1,LEO,USA,USA,Commercial,Surveillance,Falcon,1 56193U 23054R   24278.69348753  .00020661  00000+0  92482-3 0  9998,2 56193  97.3436 166.3502 0010842 119.2688 240.9633 15.21249484 82356,15.21249484,0.0010842,LEO
56194,NORSAT-TD,2023,93.31,35.0,+,97.35,Active,1,LEO,USA,Norway,Government,Earth Observation,Falcon,1 56194U 23054S   24279.47401403  .00066576  00000+0  14835-2 0  9998,2 56194  97.3457 176.3730 0009118 150.6733 209.5029 15.43323506 83025,15.43323506,0.0009118,LEO
56195,GHOST-1,2023,93.76,85.0,+,97.35,Active,1,LEO,USA,USA,Commercial,Earth Observation,Falcon,1 56195U 23054T   24278.77930506  .00037894  00000+0  10834-2 0  9998,2 56195  97.3467 173.7567 0010039 120.6696 239.5538 15.35833682 82798,15.35833682,0.0010039,LEO
56196,VIGORIDE-6,2023,91.85,363.0,+,97.33,Active,1,LEO,USA,USA,Commercial,Technology Development,Falcon,1 56196U 23054U   24279.30131433  .00140559  00000+0  12501-2 0  9997,2 56196  97.3299 180.6716 0007651  93.8381 266.3755 15.68031257 83304,15.68031257,0.0007651,LEO
56197,GHOST-2,2023,93.58,85.0,+,97.35,Active,1,LEO,USA,USA,Commercial,Earth Observation,Falcon,1 56197U 23054V   24278.81078335  .00051327  00000+0  13311-2 0  9998,2 56197  97.3459 174.7300 0010417 118.2919 241.9379 15.38786093 82862,15.38786093,0.0010417,LEO
56198,UMBRA-06,2023,92.99,65.0,+,97.33,Active,1,LEO,USA,USA,Commercial,Earth Observation,Falcon,1 56198U 23054W   24278.88901479  .00293852  00000+0  52601-2 0  9996,2 56198  97.3334 167.2266 0005838  88.3068 271.8852 15.48881308 82398,15.48881308,0.0005838,LEO
56199,TOMORROW-R1,2023,93.2,-1.0,+,97.35,Active,1,LEO,USA,USA,Commercial,Technology Development,Falcon,1 56199U 23054X   24279.44764370  .00088861  00000+0  18491-2 0  9998,2 56199  97.3486 177.2341 0009191 112.8353 247.3868 15.45256751 83074,15.45256751,0.0009191,LEO
56200,HAWK-7C,2023,94.66,-1.0,+,97.34,Active,0,LEO,USA,USA,Unknown,Unknown,Unknown,1 56200U 23054Y   24278.69336763  .00021320  00000+0  95429-3 0  9992,2 56200  97.3438 167.1456 0009928 117.1022 243.1228 15.21252267 82354,15.21252267,0.0009928,LEO
56201,NUSAT-39 (TIKVAH ALPER),2023,93.44,42.0,+,97.35,Active,1,LEO,USA,Argentina,Commercial,Earth Observation,Falcon,1 56201U 23054Z   24279.47621337  .00066497  00000+0  15840-2 0  9996,2 56201  97.3454 175.7004 0009910 118.1028 242.1222 15.41312382 82984,15.41312382,0.000991,LEO
56202,NUSAT-38 (MARIA AGNESI),2023,93.46,42.0,+,97.35,Active,1,LEO,USA,Argentina,Commercial,Earth Observation,Falcon,1 56202U 23054AA  24279.55817850  .00066303  00000+0  15968-2 0  9990,2 56202  97.3470 175.8503 0010786 116.2188 244.0169 15.40971658 82995,15.40971658,0.0010786,LEO
56203,NUSAT-37 (JOAN CLARKE),2023,93.48,42.0,+,97.31,Active,1,LEO,USA,Argentina,Commercial,Earth Observation,Falcon,1 56203U 23054AB  24279.49583778  .00064281  00000+0  15723-2 0  9995,2 56203  97.3089 173.9763 0011135 109.0017 251.2437 15.40506299 83016,15.40506299,0.0011135,LEO
56204,GHGSAT-C6,2023,93.93,15.0,+,97.35,Active,1,LEO,USA,Canada,Commercial,Earth Observation,Falcon,1 56204U 23054AC  24279.50886828  .00026352  00000+0  82074-3 0  9991,2 56204  97.3523 174.5003 0013180 119.2705 240.9856 15.33166608 82885,15.33166608,0.001318,LEO
56205,FACSAT-2,2023,93.43,10.0,+,97.35,Active,1,LEO,USA,Colombia,Military,Earth Observation,Falcon,1 56205U 23054AD  24279.52972095  .00047381  00000+0  11268-2 0  9997,2 56205  97.3510 177.2842 0012969 107.2509 253.0158 15.41413632 83079,15.41413632,0.0012969,LEO
56208,TAIFA-1,2023,93.16,1.0,+,97.34,Active,1,LEO,USA,Republic of Kenya,Commercial,Technology Development,Falcon,1 56208U 23054AG  24279.52014213  .00076961  00000+0  15650-2 0  9994,2 56208  97.3388 177.1210 0011187  99.5586 260.6928 15.45959809 83111,15.45959809,0.0011187,LEO
56209,GHGSAT-C7,2023,93.93,15.0,+,97.35,Active,1,LEO,USA,Canada,Commercial,Earth Observation,Falcon,1 56209U 23054AH  24279.53124791  .00027594  00000+0  85913-3 0  9997,2 56209  97.3486 174.3524 0013105 112.8663 247.3965 15.33169166 82898,15.33169166,0.0013105,LEO
56210,CONNECTA T2.1,2023,93.45,10.0,+,97.34,Active,1,LEO,USA,Turkey,Commercial,Earth Observation,Falcon,1 56210U 23054AJ  24279.52723366  .00047945  00000+0  11548-2 0  9995,2 56210  97.3430 176.1335 0011559 105.6828 254.5695 15.41044922 83031,15.41044922,0.0011559,LEO
56214,LS3C,2023,91.0,4.0,+,97.34,Active,1,LEO,USA,Lithuania,Commercial,Communications,Falcon,1 56214U 23054AN  24279.25439821  .00603784  00000+0  26113-2 0  9992,2 56214  97.3390 183.5443 0010307 103.1261 257.1159 15.83351119 83484,15.83351119,0.0010307,LEO
56215,VCUB1,2023,92.25,10.0,+,97.35,Active,1,LEO,USA,Brazil,Commercial,Technology Development,Falcon,1 56215U 23054AP  24279.50285112  .00082784  00000+0  96928-3 0  9996,2 56215  97.3455 182.5219 0009068 104.4458 255.7806 15.61229385 83355,15.61229385,0.0009068,LEO
56217,KEPLER-20,2023,93.78,15.0,+,97.35,Active,1,LEO,USA,Canada,Commercial,Communications,Falcon,1 56217U 23054AR  24279.11066566  .00041588  00000+0  11966-2 0  9990,2 56217  97.3536 174.4634 0011254 122.5427 237.6906 15.35600345 82848,15.35600345,0.0011254,LEO
56218,KEPLER-21,2023,93.83,15.0,+,97.34,Active,1,LEO,USA,Canada,Commercial,Communications,Falcon,1 56218U 23054AS  24279.18042874  .00038764  00000+0  11464-2 0  9999,2 56218  97.3443 173.5140 0009307 117.8912 242.3275 15.34771382 82829,15.34771382,0.0009307,LEO
56221,IRIS-C,2023,90.85,3.0,+,97.34,Active,1,LEO,USA,Taiwan,Government,Space Science,Falcon,1 56221U 23054AV  24279.48284797  .00780518  00000+0  28335-2 0  9994,2 56221  97.3395 182.4936 0009842 110.0247 250.2084 15.86632973 83423,15.86632973,0.0009842,LEO
56222,DISCO-1,2023,92.74,1.0,+,97.34,Active,1,LEO,USA,Denmark,Civil,Space Science,Falcon,1 56222U 23054AW  24279.44556477  .00141743  00000+0  22268-2 0  9998,2 56222  97.3414 178.1702 0010546 106.3429 253.8984 15.53083900 83143,15.530839,0.0010546,LEO
56224,REVELA,2023,92.48,-1.0,+,97.34,Active,0,LEO,USA,Italy,Unknown,Unknown,Unknown,1 56224U 23054AY  24279.50194027  .00152810  00000+0  20416-2 0  9996,2 56224  97.3431 179.7244 0008915  98.5315 261.6951 15.57493670 83240,15.5749367,0.0008915,LEO
56225,AAC-HSI-SAT1,2023,95.52,-1.0,+,97.45,Active,0,LEO,USA,UK,Unknown,Unknown,Unknown,1 56225U 23054AZ  24279.13692193  .00009997  00000+0  65956-3 0  9999,2 56225  97.4476 164.2712 0012967  99.2565 261.0130 15.07579999 81769,15.07579999,0.0012967,LEO
56226,OUTPOST MISSION 1,2023,94.28,-1.0,+,97.55,Active,0,LEO,USA,USA,Unknown,Unknown,Unknown,1 56226U 23084BK  24278.85662055  .00041829  00000+0  15548-2 0  9996,2 56226  97.5527  38.8859 0007295 347.5038  12.6018 15.27384754 72870,15.27384754,0.0007295,LEO
56227,SKYKRAFT-3B,2023,92.56,-1.0,+,97.54,Active,0,LEO,USA,Australia,Unknown,Unknown,Unknown,1 56227U 23084BL  24279.51907387  .00261917  00000+0  35958-2 0  9990,2 56227  97.5422  44.5162 0007934 291.1924  68.8482 15.56395040 73303,15.5639504,0.0007934,LEO
56228,SKYKRAFT-3C,2023,93.41,-1.0,+,97.55,Active,0,LEO,USA,Australia,Unknown,Unknown,Unknown,1 56228U 23084BM  24279.57141245  .00127360  00000+0  29512-2 0  9992,2 56228  97.5472  42.2087 0006656 313.3982  46.6710 15.41917401 73157,15.41917401,0.0006656,LEO
