OBJECT_NAME,OBJECT_ID,EPOCH,MEAN_MOTION,ECCENTRICITY,INCLINATION,RA_OF_ASC_NODE,ARG_OF_PERICENTER,MEAN_ANOMALY,EPHEMERIS_TYPE,CLASSIFICATION_TYPE,NORAD_CAT_ID,ELEMENT_SET_NO,REV_AT_EPOCH,BSTAR,MEAN_MOTION_DOT,MEAN_MOTION_DDOT
NUSAT-36 (ANNIE CANNON),2023-054N,2024-10-05T13:11:27.155904,15.45700988,.0008814,97.3415,176.7371,108.3935,251.8273,0,U,56190,999,8307,.16356E-2,.79687E-3,0
HAWK-7A,2023-054P,2024-10-04T16:38:42.995616,15.21249795,.0010086,97.3533,167.7648,109.1755,251.0573,0,U,56191,999,8235,.9609E-3,.21468E-3,0
ION SCV-010,2023-054Q,2024-10-05T03:08:43.505376,15.17413702,.0016605,97.4503,165.9934,206.0046,154.0355,0,U,56192,999,8186,.83819E-3,.16775E-3,0
HAWK-7B,2023-054R,2024-10-04T16:38:37.322592,15.21249484,.0010842,97.3436,166.3502,119.2688,240.9633,0,U,56193,999,8235,.92482E-3,.20661E-3,0
NORSAT-TD,2023-054S,2024-10-05T11:22:34.812192,15.43323506,.0009118,97.3457,176.3730,150.6733,209.5029,0,U,56194,999,8302,.14835E-2,.66576E-3,0
GHOST-1,2023-054T,2024-10-04T18:42:11.957184,15.35833682,.0010039,97.3467,173.7567,120.6696,239.5538,0,U,56195,999,8279,.10834E-2,.37894E-3,0
VIGORIDE-6,2023-054U,2024-10-05T07:13:53.558112,15.68031257,.0007651,97.3299,180.6716,93.8381,266.3755,0,U,56196,999,8330,.12501E-2,.140559E-2,0
GHOST-2,2023-054V,2024-10-04T19:27:31.681440,15.38786093,.0010417,97.3459,174.7300,118.2919,241.9379,0,U,56197,999,8286,.13311E-2,.51327E-3,0
UMBRA-06,2023-054W,2024-10-04T21:20:10.877856,15.48881308,.0005838,97.3334,167.2266,88.3068,271.8852,0,U,56198,999,8239,.52601E-2,.293852E-2,0
TOMORROW-R1,2023-054X,2024-10-05T10:44:36.415680,15.45256751,.0009191,97.3486,177.2341,112.8353,247.3868,0,U,56199,999,8307,.18491E-2,.88861E-3,0
HAWK-7C,2023-054Y,2024-10-04T16:38:26.963232,15.21252267,.0009928,97.3438,167.1456,117.1022,243.1228,0,U,56200,999,8235,.95429E-3,.2132E-3,0
NUSAT-39 (TIKVAH ALPER),2023-054Z,2024-10-05T11:25:44.835168,15.41312382,.000991,97.3454,175.7004,118.1028,242.1222,0,U,56201,999,8298,.1584E-2,.66497E-3,0
NUSAT-38 (MARIA AGNESI),2023-054AA,2024-10-05T13:23:46.622400,15.40971658,.0010786,97.3470,175.8503,116.2188,244.0169,0,U,56202,999,8299,.15968E-2,.66303E-3,0
NUSAT-37 (JOAN CLARKE),2023-054AB,2024-10-05T11:54:00.384192,15.40506299,.0011135,97.3089,173.9763,109.0017,251.2437,0,U,56203,999,8301,.15723E-2,.64281E-3,0
GHGSAT-C6,2023-054AC,2024-10-05T12:12:46.219392,15.33166608,.001318,97.3523,174.5003,119.2705,240.9856,0,U,56204,999,8288,.82074E-3,.26352E-3,0
FACSAT-2,2023-054AD,2024-10-05T12:42:47.890080,15.41413632,.0012969,97.3510,177.2842,107.2509,253.0158,0,U,56205,999,8307,.11268E-2,.47381E-3,0
TAIFA-1,2023-054AG,2024-10-05T12:29:00.280032,15.45959809,.0011187,97.3388,177.1210,99.5586,260.6928,0,U,56208,999,8311,.1565E-2,.76961E-3,0
GHGSAT-C7,2023-054AH,2024-10-05T12:44:59.819424,15.33169166,.0013105,97.3486,174.3524,112.8663,247.3965,0,U,56209,999,8289,.85913E-3,.27594E-3,0
CONNECTA T2.1,2023-054AJ,2024-10-05T12:39:12.988224,15.41044922,.0011559,97.3430,176.1335,105.6828,254.5695,0,U,56210,999,8303,.11548E-2,.47945E-3,0
LS3C,2023-054AN,2024-10-05T06:06:20.005344,15.83351119,.0010307,97.3390,183.5443,103.1261,257.1159,0,U,56214,999,8348,.26113E-2,.603784E-2,0
VCUB1,2023-054AP,2024-10-05T12:04:06.336768,15.61229385,.0009068,97.3455,182.5219,104.4458,255.7806,0,U,56215,999,8335,.96928E-3,.82784E-3,0
KEPLER-20,2023-054AR,2024-10-05T02:39:21.513024,15.35600345,.0011254,97.3536,174.4634,122.5427,237.6906,0,U,56217,999,8284,.11966E-2,.41588E-3,0
KEPLER-21,2023-054AS,2024-10-05T04:19:49.043136,15.34771382,.0009307,97.3443,173.5140,117.8912,242.3275,0,U,56218,999,8282,.11464E-2,.38764E-3,0
IRIS-C,2023-054AV,2024-10-05T11:35:18.064608,15.86632973,.0009842,97.3395,182.4936,110.0247,250.2084,0,U,56221,999,8342,.28335E-2,.780518E-2,0
DISCO-1,2023-054AW,2024-10-05T10:41:36.796128,15.53083900,.0010546,97.3414,178.1702,106.3429,253.8984,0,U,56222,999,8314,.22268E-2,.141743E-2,0
REVELA,2023-054AY,2024-10-05T12:02:47.639328,15.57493670,.0008915,97.3431,179.7244,98.5315,261.6951,0,U,56224,999,8324,.20416E-2,.15281E-2,0
AAC-HSI-SAT1,2023-054AZ,2024-10-05T03:17:10.054752,15.07579999,.0012967,97.4476,164.2712,99.2565,261.0130,0,U,56225,999,8176,.65956E-3,.9997E-4,0
OUTPOST MISSION 1,2023-084BK,2024-10-04T20:33:32.015520,15.27384754,.0007295,97.5527,38.8859,347.5038,12.6018,0,U,56226,999,7287,.15548E-2,.41829E-3,0
SKYKRAFT-3B,2023-084BL,2024-10-05T12:27:27.982368,15.56395040,.0007934,97.5422,44.5162,291.1924,68.8482,0,U,56227,999,7330,.35958E-2,.261917E-2,0
SKYKRAFT-3C,2023-084BM,2024-10-05T13:42:50.035680,15.41917401,.0006656,97.5472,42.2087,313.3982,46.6710,0,U,56228,999,7315,.29512E-2,.12736E-2,0
